[{"OBJECT_NAME":"ONEWEB-0442","OBJECT_ID":"2022-012Q","EPOCH":"2026-03-09T21:07:23.041920","MEAN_MOTION":13.1764939,"ECCENTRICITY":0.00017402,"INCLINATION":87.9151,"RA_OF_ASC_NODE":25.5969,"ARG_OF_PERICENTER":61.6017,"MEAN_ANOMALY":298.529,"EPHEMERIS_TYPE":0,"CLASSIFICATION_TYPE":"U","NORAD_CAT_ID":51636,"ELEMENT_SET_NO":999,"REV_AT_EPOCH":20059,"BSTAR":0.00018059307,"MEAN_MOTION_DOT":8.3e-7,"MEAN_MOTION_DDOT":0},{"OBJECT_NAME":"FENGYUN 1C DEB","OBJECT_ID":"1999-025EEZ","EPOCH":"2026-03-03T18:31:33.735936","MEAN_MOTION":13.59537,"ECCENTRICITY":0.02903317,"INCLINATION":103.2911,"RA_OF_ASC_NODE":271.1081,"ARG_OF_PERICENTER":66.3303,"MEAN_ANOMALY":296.8007,"EPHEMERIS_TYPE":0,"CLASSIFICATION_TYPE":"U","NORAD_CAT_ID":37065,"ELEMENT_SET_NO":999,"REV_AT_EPOCH":23303,"BSTAR":0.0018965573,"MEAN_MOTION_DOT":1.784e-5,"MEAN_MOTION_DDOT":0}]
